STARLINK-32009          
1 60104U 24117P   26068.30667209 -.00001277  00000+0 -30998-4 0  9992
2 60104  53.1612  39.1754 0001335  85.8460 274.2694 15.30189358 96825
HAWK-11C                
1 62381U 24247E   26068.51221537  .00009223  00000+0  33290-3 0  9992
2 62381  45.0045 114.8762 0005900 329.7040  30.3502 15.28848020 67743
